{
    "links": {
        "self": "http://www.neowsapp.com/rest/v1/neo/3365953?api_key=iIulBulltgU6a56xZRHN4H3l9WmuAYTsLGpBGhQ2"
    },
    "id": "3365953",
    "neo_reference_id": "3365953",
    "name": "(2007 AC2)",
    "designation": "2007 AC2",
    "nasa_jpl_url": "http://ssd.jpl.nasa.gov/sbdb.cgi?sstr=3365953",
    "absolute_magnitude_h": 21.8,
    "estimated_diameter": {
        "kilometers": {
            "estimated_diameter_min": 0.1160259082,
            "estimated_diameter_max": 0.2594418179
        },
        "meters": {
            "estimated_diameter_min": 116.0259082094,
            "estimated_diameter_max": 259.4418179074
        },
        "miles": {
            "estimated_diameter_min": 0.0720951346,
            "estimated_diameter_max": 0.1612096218
        },
        "feet": {
            "estimated_diameter_min": 380.6624406898,
            "estimated_diameter_max": 851.1870938635
        }
    },
    "is_potentially_hazardous_asteroid": true,
    "close_approach_data": [
        {
            "close_approach_date": "2007-01-05",
            "close_approach_date_full": "2007-Jan-05 22:42",
            "epoch_date_close_approach": 1168036920000,
            "relative_velocity": {
                "kilometers_per_second": "20.3477593219",
                "kilometers_per_hour": "73251.9335588",
                "miles_per_hour": "45515.9028271333"
            },
            "miss_distance": {
                "astronomical": "0.0461141172",
                "lunar": "17.9383915908",
                "kilometers": "6898573.710050364",
                "miles": "4286574.9323044632"
            },
            "orbiting_body": "Earth"
        },
        {
            "close_approach_date": "2010-07-14",
            "close_approach_date_full": "2010-Jul-14 04:27",
            "epoch_date_close_approach": 1279081620000,
            "relative_velocity": {
                "kilometers_per_second": "26.3881211342",
                "kilometers_per_hour": "94997.2360830775",
                "miles_per_hour": "59027.5881650656"
            },
            "miss_distance": {
                "astronomical": "0.169130187",
                "lunar": "65.791642743",
                "kilometers": "25301515.72790169",
                "miles": "15721632.851515722"
            },
            "orbiting_body": "Earth"
        },
        {
            "close_approach_date": "2076-10-23",
            "close_approach_date_full": "2076-Oct-23 19:22",
            "epoch_date_close_approach": 3370706520000,
            "relative_velocity": {
                "kilometers_per_second": "5.4041116819",
                "kilometers_per_hour": "19454.8020548581",
                "miles_per_hour": "12088.4574212533"
            },
            "miss_distance": {
                "astronomical": "1.5777598841",
                "lunar": "613.7485949149",
                "kilometers": "236029518.032806867",
                "miles": "146661941.7009820846"
            },
            "orbiting_body": "Juptr"
        },
        {
            "close_approach_date": "2090-01-07",
            "close_approach_date_full": "2090-Jan-07 07:48",
            "epoch_date_close_approach": 3787458480000,
            "relative_velocity": {
                "kilometers_per_second": "21.0749033964",
                "kilometers_per_hour": "75869.652227148",
                "miles_per_hour": "47142.4514074743"
            },
            "miss_distance": {
                "astronomical": "0.0178679443",
                "lunar": "6.9506303327",
                "kilometers": "2673006.408558641",
                "miles": "1660929.1639696058"
            },
            "orbiting_body": "Earth"
        },
        {
            "close_approach_date": "2093-07-11",
            "close_approach_date_full": "2093-Jul-11 22:35",
            "epoch_date_close_approach": 3898190100000,
            "relative_velocity": {
                "kilometers_per_second": "27.708543274",
                "kilometers_per_hour": "99750.7557862672",
                "miles_per_hour": "61981.2404495281"
            },
            "miss_distance": {
                "astronomical": "0.2190483253",
                "lunar": "85.2097985417",
                "kilometers": "32769162.891947111",
                "miles": "20361813.6312116918"
            },
            "orbiting_body": "Earth"
        }
    ],
    "orbital_data": {
        "orbit_id": "16",
        "orbit_determination_date": "2017-04-06 09:07:15",
        "first_observation_date": "2007-01-10",
        "last_observation_date": "2007-02-06",
        "data_arc_in_days": 27,
        "observations_used": 99,
        "orbit_uncertainty": "7",
        "minimum_orbit_intersection": ".0170215",
        "jupiter_tisserand_invariant": "3.053",
        "epoch_osculation": "2459000.5",
        "eccentricity": ".7434979204833607",
        "semi_major_axis": "2.415766310830338",
        "inclination": "9.513663390667672",
        "ascending_node_longitude": "294.4672020866594",
        "orbital_period": "1371.452617248948",
        "perihelion_distance": ".6196490823542218",
        "perihelion_argument": "91.0582822629046",
        "aphelion_distance": "4.211883539306455",
        "perihelion_time": "2459558.523453036129",
        "mean_anomaly": "213.5214118472598",
        "mean_motion": ".26249539756039",
        "equinox": "J2000",
        "orbit_class": {
            "orbit_class_type": "APO",
            "orbit_class_description": "Near-Earth asteroid orbits which cross the Earth’s orbit similar to that of 1862 Apollo",
            "orbit_class_range": "a (semi-major axis) > 1.0 AU; q (perihelion) < 1.017 AU"
        }
    },
    "is_sentry_object": false
}